IRIDIUM 39              
1 25042U 97069D   25337.90233349  .00001484  00000+0  38143-3 0  9995
2 25042  86.3911 138.4219 0019767  98.6898 261.6546 14.49483726473540
IRIDIUM 38              
1 25043U 97069E   25337.93364709  .00000862  00000+0  27693-3 0  9991
2 25043  86.3970 161.8107 0000284 151.7114 208.4100 14.38300683470357
IRIDIUM 42              
1 25077U 97077A   25337.93991740  .00000788  00000+0  26184-3 0  9999
2 25077  86.3980 168.1837 0001265  80.8496 279.2845 14.36520238465567
IRIDIUM 44              
1 25078U 97077B   25337.92218614  .00000840  00000+0  25836-3 0  9993
2 25078  86.3964 149.6771 0002532 136.4902 223.6498 14.40420834468138
IRIDIUM 45              
1 25104U 97082A   25337.72026426  .00036322  00000+0  10427-2 0  9998
2 25104  86.3530 325.1216 0102769  54.3774 306.6993 15.30476945477899
IRIDIUM 24              
1 25105U 97082B   25337.60569525  .00000692  00000+0  20378-3 0  9996
2 25105  86.3918   8.4284 0009604 230.8057 129.2291 14.42313784467639
IRIDIUM 51              
1 25262U 98018A   25337.73421756  .00130513  00000+0  15088-2 0  9994
2 25262  86.3730 330.8616 0051463 313.7612  45.9398 15.59805673473242
IRIDIUM 57              
1 25273U 98019B   25337.78344063  .00000613  00000+0  20407-3 0  9996
2 25273  86.3959  74.1458 0001980  96.7171 263.4251 14.36040354449122
