<?xml version="1.0" encoding="UTF-8"?>
<ndm xmlns:xsi="http://www.w3.org/2001/XMLSchema-instance" xsi:noNamespaceSchemaLocation="https://sanaregistry.org/r/ndmxml_unqualified/ndmxml-2.0.0-master-2.0.xsd">
<omm id="CCSDS_OMM_VERS" version="2.0">
<header><CREATION_DATE/><ORIGINATOR/></header><body><segment><metadata><OBJECT_NAME>IRIDIUM 39</OBJECT_NAME><OBJECT_ID>1997-069D</OBJECT_ID><CENTER_NAME>EARTH</CENTER_NAME><REF_FRAME>TEME</REF_FRAME><TIME_SYSTEM>UTC</TIME_SYSTEM><MEAN_ELEMENT_THEORY>SGP4</MEAN_ELEMENT_THEORY></metadata><data><meanElements><EPOCH>2025-12-03T21:39:21.613536</EPOCH><MEAN_MOTION>14.49483726</MEAN_MOTION><ECCENTRICITY>.00197679</ECCENTRICITY><INCLINATION>86.3911</INCLINATION><RA_OF_ASC_NODE>138.4219</RA_OF_ASC_NODE><ARG_OF_PERICENTER>98.6898</ARG_OF_PERICENTER><MEAN_ANOMALY>261.6546</MEAN_ANOMALY></meanElements><tleParameters><EPHEMERIS_TYPE>0</EPHEMERIS_TYPE><CLASSIFICATION_TYPE>U</CLASSIFICATION_TYPE><NORAD_CAT_ID>25042</NORAD_CAT_ID><ELEMENT_SET_NO>999</ELEMENT_SET_NO><REV_AT_EPOCH>47354</REV_AT_EPOCH><BSTAR>.38142701E-3</BSTAR><MEAN_MOTION_DOT>.1484E-4</MEAN_MOTION_DOT><MEAN_MOTION_DDOT>0</MEAN_MOTION_DDOT></tleParameters></data></segment></body></omm>
<omm id="CCSDS_OMM_VERS" version="2.0">
<header><CREATION_DATE/><ORIGINATOR/></header><body><segment><metadata><OBJECT_NAME>IRIDIUM 38</OBJECT_NAME><OBJECT_ID>1997-069E</OBJECT_ID><CENTER_NAME>EARTH</CENTER_NAME><REF_FRAME>TEME</REF_FRAME><TIME_SYSTEM>UTC</TIME_SYSTEM><MEAN_ELEMENT_THEORY>SGP4</MEAN_ELEMENT_THEORY></metadata><data><meanElements><EPOCH>2025-12-03T22:24:27.108576</EPOCH><MEAN_MOTION>14.38300683</MEAN_MOTION><ECCENTRICITY>.00002845</ECCENTRICITY><INCLINATION>86.3970</INCLINATION><RA_OF_ASC_NODE>161.8107</RA_OF_ASC_NODE><ARG_OF_PERICENTER>151.7114</ARG_OF_PERICENTER><MEAN_ANOMALY>208.4100</MEAN_ANOMALY></meanElements><tleParameters><EPHEMERIS_TYPE>0</EPHEMERIS_TYPE><CLASSIFICATION_TYPE>U</CLASSIFICATION_TYPE><NORAD_CAT_ID>25043</NORAD_CAT_ID><ELEMENT_SET_NO>999</ELEMENT_SET_NO><REV_AT_EPOCH>47035</REV_AT_EPOCH><BSTAR>.27693407E-3</BSTAR><MEAN_MOTION_DOT>.862E-5</MEAN_MOTION_DOT><MEAN_MOTION_DDOT>0</MEAN_MOTION_DDOT></tleParameters></data></segment></body></omm>
<omm id="CCSDS_OMM_VERS" version="2.0">
<header><CREATION_DATE/><ORIGINATOR/></header><body><segment><metadata><OBJECT_NAME>IRIDIUM 42</OBJECT_NAME><OBJECT_ID>1997-077A</OBJECT_ID><CENTER_NAME>EARTH</CENTER_NAME><REF_FRAME>TEME</REF_FRAME><TIME_SYSTEM>UTC</TIME_SYSTEM><MEAN_ELEMENT_THEORY>SGP4</MEAN_ELEMENT_THEORY></metadata><data><meanElements><EPOCH>2025-12-03T22:33:28.863360</EPOCH><MEAN_MOTION>14.36520238</MEAN_MOTION><ECCENTRICITY>.00012657</ECCENTRICITY><INCLINATION>86.3980</INCLINATION><RA_OF_ASC_NODE>168.1837</RA_OF_ASC_NODE><ARG_OF_PERICENTER>80.8496</ARG_OF_PERICENTER><MEAN_ANOMALY>279.2845</MEAN_ANOMALY></meanElements><tleParameters><EPHEMERIS_TYPE>0</EPHEMERIS_TYPE><CLASSIFICATION_TYPE>U</CLASSIFICATION_TYPE><NORAD_CAT_ID>25077</NORAD_CAT_ID><ELEMENT_SET_NO>999</ELEMENT_SET_NO><REV_AT_EPOCH>46556</REV_AT_EPOCH><BSTAR>.26183675E-3</BSTAR><MEAN_MOTION_DOT>.788E-5</MEAN_MOTION_DOT><MEAN_MOTION_DDOT>0</MEAN_MOTION_DDOT></tleParameters></data></segment></body></omm>
<omm id="CCSDS_OMM_VERS" version="2.0">
<header><CREATION_DATE/><ORIGINATOR/></header><body><segment><metadata><OBJECT_NAME>IRIDIUM 44</OBJECT_NAME><OBJECT_ID>1997-077B</OBJECT_ID><CENTER_NAME>EARTH</CENTER_NAME><REF_FRAME>TEME</REF_FRAME><TIME_SYSTEM>UTC</TIME_SYSTEM><MEAN_ELEMENT_THEORY>SGP4</MEAN_ELEMENT_THEORY></metadata><data><meanElements><EPOCH>2025-12-03T22:07:56.882496</EPOCH><MEAN_MOTION>14.40420834</MEAN_MOTION><ECCENTRICITY>.00025321</ECCENTRICITY><INCLINATION>86.3964</INCLINATION><RA_OF_ASC_NODE>149.6771</RA_OF_ASC_NODE><ARG_OF_PERICENTER>136.4902</ARG_OF_PERICENTER><MEAN_ANOMALY>223.6498</MEAN_ANOMALY></meanElements><tleParameters><EPHEMERIS_TYPE>0</EPHEMERIS_TYPE><CLASSIFICATION_TYPE>U</CLASSIFICATION_TYPE><NORAD_CAT_ID>25078</NORAD_CAT_ID><ELEMENT_SET_NO>999</ELEMENT_SET_NO><REV_AT_EPOCH>46813</REV_AT_EPOCH><BSTAR>.25836381E-3</BSTAR><MEAN_MOTION_DOT>.84E-5</MEAN_MOTION_DOT><MEAN_MOTION_DDOT>0</MEAN_MOTION_DDOT></tleParameters></data></segment></body></omm>
<omm id="CCSDS_OMM_VERS" version="2.0">
<header><CREATION_DATE/><ORIGINATOR/></header><body><segment><metadata><OBJECT_NAME>IRIDIUM 45</OBJECT_NAME><OBJECT_ID>1997-082A</OBJECT_ID><CENTER_NAME>EARTH</CENTER_NAME><REF_FRAME>TEME</REF_FRAME><TIME_SYSTEM>UTC</TIME_SYSTEM><MEAN_ELEMENT_THEORY>SGP4</MEAN_ELEMENT_THEORY></metadata><data><meanElements><EPOCH>2025-12-03T17:17:10.832064</EPOCH><MEAN_MOTION>15.30476945</MEAN_MOTION><ECCENTRICITY>.01027696</ECCENTRICITY><INCLINATION>86.3530</INCLINATION><RA_OF_ASC_NODE>325.1216</RA_OF_ASC_NODE><ARG_OF_PERICENTER>54.3774</ARG_OF_PERICENTER><MEAN_ANOMALY>306.6993</MEAN_ANOMALY></meanElements><tleParameters><EPHEMERIS_TYPE>0</EPHEMERIS_TYPE><CLASSIFICATION_TYPE>U</CLASSIFICATION_TYPE><NORAD_CAT_ID>25104</NORAD_CAT_ID><ELEMENT_SET_NO>999</ELEMENT_SET_NO><REV_AT_EPOCH>47789</REV_AT_EPOCH><BSTAR>.10427347E-2</BSTAR><MEAN_MOTION_DOT>.36322E-3</MEAN_MOTION_DOT><MEAN_MOTION_DDOT>0</MEAN_MOTION_DDOT></tleParameters></data></segment></body></omm>
<omm id="CCSDS_OMM_VERS" version="2.0">
<header><CREATION_DATE/><ORIGINATOR/></header><body><segment><metadata><OBJECT_NAME>IRIDIUM 24</OBJECT_NAME><OBJECT_ID>1997-082B</OBJECT_ID><CENTER_NAME>EARTH</CENTER_NAME><REF_FRAME>TEME</REF_FRAME><TIME_SYSTEM>UTC</TIME_SYSTEM><MEAN_ELEMENT_THEORY>SGP4</MEAN_ELEMENT_THEORY></metadata><data><meanElements><EPOCH>2025-12-03T14:32:12.069600</EPOCH><MEAN_MOTION>14.42313784</MEAN_MOTION><ECCENTRICITY>.00096045</ECCENTRICITY><INCLINATION>86.3918</INCLINATION><RA_OF_ASC_NODE>8.4284</RA_OF_ASC_NODE><ARG_OF_PERICENTER>230.8057</ARG_OF_PERICENTER><MEAN_ANOMALY>129.2291</MEAN_ANOMALY></meanElements><tleParameters><EPHEMERIS_TYPE>0</EPHEMERIS_TYPE><CLASSIFICATION_TYPE>U</CLASSIFICATION_TYPE><NORAD_CAT_ID>25105</NORAD_CAT_ID><ELEMENT_SET_NO>999</ELEMENT_SET_NO><REV_AT_EPOCH>46763</REV_AT_EPOCH><BSTAR>.20378281E-3</BSTAR><MEAN_MOTION_DOT>.692E-5</MEAN_MOTION_DOT><MEAN_MOTION_DDOT>0</MEAN_MOTION_DDOT></tleParameters></data></segment></body></omm>
<omm id="CCSDS_OMM_VERS" version="2.0">
<header><CREATION_DATE/><ORIGINATOR/></header><body><segment><metadata><OBJECT_NAME>IRIDIUM 51</OBJECT_NAME><OBJECT_ID>1998-018A</OBJECT_ID><CENTER_NAME>EARTH</CENTER_NAME><REF_FRAME>TEME</REF_FRAME><TIME_SYSTEM>UTC</TIME_SYSTEM><MEAN_ELEMENT_THEORY>SGP4</MEAN_ELEMENT_THEORY></metadata><data><meanElements><EPOCH>2025-12-03T17:37:16.397184</EPOCH><MEAN_MOTION>15.59805673</MEAN_MOTION><ECCENTRICITY>.0051463</ECCENTRICITY><INCLINATION>86.3730</INCLINATION><RA_OF_ASC_NODE>330.8616</RA_OF_ASC_NODE><ARG_OF_PERICENTER>313.7612</ARG_OF_PERICENTER><MEAN_ANOMALY>45.9398</MEAN_ANOMALY></meanElements><tleParameters><EPHEMERIS_TYPE>0</EPHEMERIS_TYPE><CLASSIFICATION_TYPE>U</CLASSIFICATION_TYPE><NORAD_CAT_ID>25262</NORAD_CAT_ID><ELEMENT_SET_NO>999</ELEMENT_SET_NO><REV_AT_EPOCH>47324</REV_AT_EPOCH><BSTAR>.15088248E-2</BSTAR><MEAN_MOTION_DOT>.130513E-2</MEAN_MOTION_DOT><MEAN_MOTION_DDOT>0</MEAN_MOTION_DDOT></tleParameters></data></segment></body></omm>
<omm id="CCSDS_OMM_VERS" version="2.0">
<header><CREATION_DATE/><ORIGINATOR/></header><body><segment><metadata><OBJECT_NAME>IRIDIUM 57</OBJECT_NAME><OBJECT_ID>1998-019B</OBJECT_ID><CENTER_NAME>EARTH</CENTER_NAME><REF_FRAME>TEME</REF_FRAME><TIME_SYSTEM>UTC</TIME_SYSTEM><MEAN_ELEMENT_THEORY>SGP4</MEAN_ELEMENT_THEORY></metadata><data><meanElements><EPOCH>2025-12-03T18:48:09.270432</EPOCH><MEAN_MOTION>14.36040354</MEAN_MOTION><ECCENTRICITY>.00019804</ECCENTRICITY><INCLINATION>86.3959</INCLINATION><RA_OF_ASC_NODE>74.1458</RA_OF_ASC_NODE><ARG_OF_PERICENTER>96.7171</ARG_OF_PERICENTER><MEAN_ANOMALY>263.4251</MEAN_ANOMALY></meanElements><tleParameters><EPHEMERIS_TYPE>0</EPHEMERIS_TYPE><CLASSIFICATION_TYPE>U</CLASSIFICATION_TYPE><NORAD_CAT_ID>25273</NORAD_CAT_ID><ELEMENT_SET_NO>999</ELEMENT_SET_NO><REV_AT_EPOCH>44912</REV_AT_EPOCH><BSTAR>.20407378E-3</BSTAR><MEAN_MOTION_DOT>.613E-5</MEAN_MOTION_DOT><MEAN_MOTION_DDOT>0</MEAN_MOTION_DDOT></tleParameters></data></segment></body></omm>

</ndm>
